H1 CPF 01  gfz 2021 12 12 01  8461 terrasarx 
H2 0702601  6201 31698    2021 12 12 00 59 42 2021 12 17 00 00 42   120 1 1  0 0 0
H9
10 0 59560  36702.000000  0   -3075997.303   4838120.559  -3827799.796
10 0 59560  36822.000000  0   -3150493.992   5320149.984  -3046866.853
10 0 59560  36942.000000  0   -3162464.176   5710232.832  -2212464.167
10 0 59560  37062.000000  0   -3113325.537   6000393.474  -1339196.894
10 0 59560  37182.000000  0   -3005692.287   6184436.094   -442384.553
10 0 59560  37302.000000  0   -2843301.661   6258082.404    462210.638
10 0 59560  37422.000000  0   -2630918.492   6219075.807   1358668.370
10 0 59560  37542.000000  0   -2374215.188   6067242.321   2231202.177
10 0 59560  37662.000000  0   -2079633.125   5804507.238   3064446.579
10 0 59560  37782.000000  0   -1754230.581   5434870.143   3843734.273
10 0 59560  37902.000000  0   -1405520.638   4964339.222   4555358.981
10 0 59560  38022.000000  0   -1041302.335   4400825.899   5186819.178
10 0 59560  38142.000000  0    -669488.378   3754002.562   5727036.651
10 0 59560  38262.000000  0    -297936.422   3035128.239   6166547.297
10 0 59560  38382.000000  0      65714.636   2256844.628   6497661.526
10 0 59560  38502.000000  0     414199.405   1432949.206   6714592.486
10 0 59560  38622.000000  0     740769.578    578147.178   6813551.759
10 0 59560  38742.000000  0    1039323.055   -292211.374   6792810.278
10 0 59560  38862.000000  0    1304517.019  -1162405.909   6652727.732
10 0 59560  38982.000000  0    1531863.483  -2016629.015   6395747.127
10 0 59560  39102.000000  0    1717805.599  -2839273.290   6026355.562
10 0 59560  39222.000000  0    1859773.632  -3615218.274   5551010.691
10 0 59560  39342.000000  0    1956219.345  -4330111.448   4978032.833
10 0 59560  39462.000000  0    2006628.875  -4970637.405   4317465.029
10 0 59560  39582.000000  0    2011514.765  -5524773.581   3580903.125
10 0 59560  39702.000000  0    1972384.962  -5982025.590   2781293.721
10 0 59560  39822.000000  0    1891689.039  -6333634.256   1932705.730
10 0 59560  39942.000000  0    1772745.537  -6572750.985   1050080.368
10 0 59560  40062.000000  0    1619649.980  -6694578.196    148962.950
10 0 59560  40182.000000  0    1437165.707  -6696470.630   -754778.407
10 0 59560  40302.000000  0    1230599.877  -6577992.578  -1645243.994
10 0 59560  40422.000000  0    1005667.963  -6340926.831  -2506790.826
10 0 59560  40542.000000  0     768351.690  -5989240.412  -3324313.528
10 0 59560  40662.000000  0     524755.480  -5529007.527  -4083512.471
10 0 59560  40782.000000  0     280961.851  -4968292.183  -4771143.888
10 0 59560  40902.000000  0      42890.581  -4316994.103  -5375246.286
10 0 59560  41022.000000  0    -183834.789  -3586663.027  -5885341.131
10 0 59560  41142.000000  0    -394010.515  -2790284.874  -6292604.633
10 0 59560  41262.000000  0    -582963.801  -1942045.455  -6590009.025
10 0 59560  41382.000000  0    -746649.900  -1057076.378  -6772432.467
10 0 59560  41502.000000  0    -881733.503   -151187.576  -6836738.517
10 0 59560  41622.000000  0    -985653.083    759410.605  -6781823.424
10 0 59560  41742.000000  0   -1056667.808   1658389.893  -6608632.279
10 0 59560  41862.000000  0   -1093886.241   2529589.431  -6320144.280
10 0 59560  41982.000000  0   -1097276.291   3357299.795  -5921328.250
10 0 59560  42102.000000  0   -1067656.770   4126543.843  -5419066.438
10 0 59560  42222.000000  0   -1006669.872   4823347.750  -4822046.684
10 0 59560  42342.000000  0    -916735.726   5434999.618  -4140623.636
10 0 59560  42462.000000  0    -800989.185   5950289.287  -3386648.451
10 0 59560  42582.000000  0    -663199.650   6359723.555  -2573270.161
10 0 59560  42702.000000  0    -507675.479   6655713.281  -1714711.260
10 0 59560  42822.000000  0    -339155.392   6832726.338   -826019.556
10 0 59560  42942.000000  0    -162688.572   6887402.251     77198.086
10 0 59560  43062.000000  0      16493.595   6818625.107    979055.851
10 0 59560  43182.000000  0     193110.268   6627551.459   1863677.620
10 0 59560  43302.000000  0     361964.365   6317590.346   2715486.074
10 0 59560  43422.000000  0     518073.229   5894338.260   3519483.880
10 0 59560  43542.000000  0     656794.241   5365472.524   4261522.928
10 0 59560  43662.000000  0     773942.538   4740605.828   4928560.031
10 0 59560  43782.000000  0     865895.156   4031095.858   5508887.488
10 0 59560  43902.000000  0     929682.995   3249830.381   5992332.927
10 0 59560  44022.000000  0     963066.774   2410985.555   6370433.752
10 0 59560  44142.000000  0     964594.662   1529762.548   6636579.534
10 0 59560  44262.000000  0     933642.012    622107.949   6786121.654
10 0 59560  44382.000000  0     870432.171   -295575.643   6816448.431
10 0 59560  44502.000000  0     776037.835  -1206724.625   6727028.974
10 0 59560  44622.000000  0     652362.763  -2094913.386   6519422.629
10 0 59560  44742.000000  0     502104.047  -2944150.370   6197254.099
10 0 59560  44862.000000  0     328695.583  -3739168.191   5766152.988
10 0 59560  44982.000000  0     136234.361  -4465698.923   5233658.843
10 0 59560  45102.000000  0     -70608.830  -5110733.344   4609096.707
10 0 59560  45222.000000  0    -286693.768  -5662762.545   3903421.522
10 0 59560  45342.000000  0    -506529.345  -6111994.024   3129029.054
10 0 59560  45462.000000  0    -724402.698  -6450535.601   2299538.850
10 0 59560  45582.000000  0    -934514.726  -6672542.907   1429552.467
10 0 59560  45702.000000  0   -1131120.465  -6774329.590    534392.678
10 0 59560  45822.000000  0   -1308671.221  -6754433.746   -370175.564
10 0 59560  45942.000000  0   -1461952.067  -6613637.602  -1268232.146
10 0 59560  46062.000000  0   -1586212.432  -6354942.389  -2143990.429
10 0 59560  46182.000000  0   -1677287.107  -5983499.580  -2982081.814
10 0 59560  46302.000000  0   -1731704.694  -5506499.725  -3767830.906
10 0 59560  46422.000000  0   -1746780.252  -4933021.435  -4487514.397
10 0 59560  46542.000000  0   -1720689.974  -4273846.273  -5128597.751
10 0 59560  46662.000000  0   -1652527.037  -3541245.671  -5679946.835
10 0 59560  46782.000000  0   -1542337.534  -2748744.611  -6132012.572
10 0 59560  46902.000000  0   -1391135.805  -1910866.307  -6476986.088
10 0 59560  47022.000000  0   -1200899.426  -1042863.901  -6708921.717
10 0 59560  47142.000000  0    -974544.775   -160444.834  -6823828.873
10 0 59560  47262.000000  0    -715882.882    720508.567  -6819732.736
10 0 59560  47382.000000  0    -429555.755   1584217.605  -6696703.955
10 0 59560  47502.000000  0    -120955.690   2415282.352  -6456857.380
10 0 59560  47622.000000  0     203872.398   3198950.144  -6104321.264
10 0 59560  47742.000000  0     538345.993   3921375.233  -5645174.455
10 0 59560  47862.000000  0     875473.666   4569862.814  -5087350.838
10 0 59560  47982.000000  0    1207995.733   5133095.624  -4440514.255
10 0 59560  48102.000000  0    1528535.531   5601339.345  -3715901.679
10 0 59560  48222.000000  0    1829757.742   5966620.305  -2926136.465
10 0 59560  48342.000000  0    2104530.383   6222872.836  -2085014.786
10 0 59560  48462.000000  0    2346087.233   6366052.379  -1207266.794
10 0 59560  48582.000000  0    2548186.310   6394209.462   -308296.213
10 0 59560  48702.000000  0    2705260.149   6307521.661    596095.470
10 0 59560  48822.000000  0    2812553.841   6108282.950   1489993.714
10 0 59560  48942.000000  0    2866247.290   5800851.068   2357658.973
10 0 59560  49062.000000  0    2863558.856   5391553.625   3183811.943
10 0 59560  49182.000000  0    2802827.876   4888554.979   3953909.941
10 0 59560  49302.000000  0    2683573.719   4301688.236   4654408.903
10 0 59560  49422.000000  0    2506527.538   3642253.330   5273005.597
10 0 59560  49542.000000  0    2273638.535   2922789.980   5798850.324
10 0 59560  49662.000000  0    1988057.256   2156833.369   6222732.489
10 0 59560  49782.000000  0    1654093.349   1358654.439   6537237.897
10 0 59560  49902.000000  0    1277148.806    542989.558   6736871.930
10 0 59560  50022.000000  0     863629.262   -275231.895   6818148.507
10 0 59560  50142.000000  0     420834.911  -1081159.486   6779648.561
10 0 59560  50262.000000  0     -43168.606  -1860291.639   6622043.894
10 0 59560  50382.000000  0    -519697.235  -2598736.413   6348085.862
10 0 59560  50502.000000  0    -999610.332  -3283459.978   5962559.091
10 0 59560  50622.000000  0   -1473483.127  -3902517.112   5472201.528
10 0 59560  50742.000000  0   -1931789.955  -4445262.528   4885594.727
10 0 59560  50862.000000  0   -2365096.411  -4902540.815   4213021.639
10 0 59560  50982.000000  0   -2764255.374  -5266849.849   3466291.053
10 0 59560  51102.000000  0   -3120600.772  -5532471.778   2658530.644
10 0 59560  51222.000000  0   -3426134.829  -5695568.471   1803954.958
10 0 59560  51342.000000  0   -3673705.452  -5754240.925    917611.837
10 0 59560  51462.000000  0   -3857169.186  -5708549.895     15111.242
10 0 59560  51582.000000  0   -3971535.374  -5560497.182   -887657.570
10 0 59560  51702.000000  0   -4013087.562  -5313967.421  -1774815.298
10 0 59560  51822.000000  0   -3979478.682  -4974631.041  -2630780.782
10 0 59560  51942.000000  0   -3869797.738  -4549811.781  -3440551.207
10 0 59560  52062.000000  0   -3684606.378  -4048323.148  -4189967.901
10 0 59560  52182.000000  0   -3425945.682  -3480279.182  -4865962.624
10 0 59560  52302.000000  0   -3097313.700  -2856884.164  -5456780.920
10 0 59560  52422.000000  0   -2703614.691  -2190206.252  -5952178.331
10 0 59560  52542.000000  0   -2251081.965  -1492941.023  -6343588.187
10 0 59560  52662.000000  0   -1747175.030   -778168.589  -6624259.017
10 0 59560  52782.000000  0   -1200454.247    -59109.772  -6789358.911
10 0 59560  52902.000000  0    -620436.623    651113.477  -6836048.484
10 0 59560  53022.000000  0     -17433.112   1339711.327  -6763524.681
10 0 59560  53142.000000  0     597629.583   1994450.158  -6573032.800
99
